[{"OBJECT_NAME":"NUSAT-49 (KLARA DAN VON NEUMANN)","OBJECT_ID":"2024-149AJ","EPOCH":"2026-03-09T19:09:16.004160","MEAN_MOTION":15.30828857,"ECCENTRICITY":0.00011321,"INCLINATION":97.3807,"RA_OF_ASC_NODE":150.738,"ARG_OF_PERICENTER":286.7761,"MEAN_ANOMALY":73.3356,"EPHEMERIS_TYPE":0,"CLASSIFICATION_TYPE":"U","NORAD_CAT_ID":60500,"ELEMENT_SET_NO":999,"REV_AT_EPOCH":8693,"BSTAR":0.00043568345,"MEAN_MOTION_DOT":0.00012912,"MEAN_MOTION_DDOT":0},{"OBJECT_NAME":"STARLINK-34823","OBJECT_ID":"2025-190E","EPOCH":"2026-03-09T12:58:09.755616","MEAN_MOTION":15.30190871,"ECCENTRICITY":0.00011528,"INCLINATION":53.1597,"RA_OF_ASC_NODE":168.7809,"ARG_OF_PERICENTER":86.0047,"MEAN_ANOMALY":274.1086,"EPHEMERIS_TYPE":0,"CLASSIFICATION_TYPE":"U","NORAD_CAT_ID":65355,"ELEMENT_SET_NO":999,"REV_AT_EPOCH":2973,"BSTAR":0.0009453984,"MEAN_MOTION_DOT":0.00027737,"MEAN_MOTION_DDOT":0}]
